{
  "type": "FeatureCollection",
  "features": [
    {
      "type": "Feature",
      "properties": {
        "norad_id": 46440,
        "name": "FENGYUN 1C DEB",
        "group": "fengyun-1c-debris",
        "lat": -44.297401502670624,
        "lon": 35.81178283995504,
        "alt_km": 926.9583125501895,
        "timestamp": "2025-12-26T17:24:55.009863+00:00",
        "meta_object_name": "FENGYUN 1C DEB",
        "meta_object_id": "1999-025EYV",
        "meta_epoch": "2025-12-20T20:25:34.567392",
        "meta_mean_motion": 14.2032994,
        "meta_eccentricity": 0.01764773,
        "meta_inclination": 98.5919,
        "meta_ra_of_asc_node": 21.6185,
        "meta_arg_of_pericenter": 111.8963,
        "meta_mean_anomaly": 63.8759,
        "meta_ephemeris_type": 0,
        "meta_classification_type": "U",
        "meta_norad_cat_id": 46440,
        "meta_element_set_no": 999,
        "meta_rev_at_epoch": 62484,
        "meta_bstar": 0.00020023593,
        "meta_mean_motion_dot": 4.59e-06,
        "meta_mean_motion_ddot": 0,
        "tle_line1": "1 46440U 99025EYV 25354.85109453  .00000459  00000+0  20024-3 0  9995",
        "tle_line2": "2 46440  98.5919  21.6185 0176477 111.8963  63.8759 14.20329940624841"
      },
      "geometry": {
        "type": "Point",
        "coordinates": [
          35.81178283995504,
          -44.297401502670624
        ]
      }
    },
    {
      "type": "Feature",
      "properties": {
        "norad_id": 46443,
        "name": "FENGYUN 1C DEB",
        "group": "fengyun-1c-debris",
        "lat": 38.968268041450514,
        "lon": 60.420914972123185,
        "alt_km": 844.4567894749789,
        "timestamp": "2025-12-26T17:24:55.009873+00:00",
        "meta_object_name": "FENGYUN 1C DEB",
        "meta_object_id": "1999-025EYY",
        "meta_epoch": "2025-12-24T09:21:30.254400",
        "meta_mean_motion": 14.10907038,
        "meta_eccentricity": 0.00968142,
        "meta_inclination": 99.2138,
        "meta_ra_of_asc_node": 65.5704,
        "meta_arg_of_pericenter": 322.8051,
        "meta_mean_anomaly": 98.5654,
        "meta_ephemeris_type": 0,
        "meta_classification_type": "U",
        "meta_norad_cat_id": 46443,
        "meta_element_set_no": 999,
        "meta_rev_at_epoch": 59760,
        "meta_bstar": 0.0016906012,
        "meta_mean_motion_dot": 3.122e-05,
        "meta_mean_motion_ddot": 0,
        "tle_line1": "1 46443U 99025EYY 25358.38993350  .00003122  00000+0  16906-2 0  9990",
        "tle_line2": "2 46443  99.2138  65.5704 0096814 322.8051  98.5654 14.10907038597608"
      },
      "geometry": {
        "type": "Point",
        "coordinates": [
          60.420914972123185,
          38.968268041450514
        ]
      }
    },
    {
      "type": "Feature",
      "properties": {
        "norad_id": 46444,
        "name": "FENGYUN 1C DEB",
        "group": "fengyun-1c-debris",
        "lat": 1.3244241984119283,
        "lon": -177.45238944970924,
        "alt_km": 781.2147808502168,
        "timestamp": "2025-12-26T17:24:55.009883+00:00",
        "meta_object_name": "FENGYUN 1C DEB",
        "meta_object_id": "1999-025EYZ",
        "meta_epoch": "2025-12-18T06:45:06.153408",
        "meta_mean_motion": 14.27169033,
        "meta_eccentricity": 0.00846398,
        "meta_inclination": 98.5129,
        "meta_ra_of_asc_node": 354.1289,
        "meta_arg_of_pericenter": 134.7606,
        "meta_mean_anomaly": 242.101,
        "meta_ephemeris_type": 0,
        "meta_classification_type": "U",
        "meta_norad_cat_id": 46444,
        "meta_element_set_no": 999,
        "meta_rev_at_epoch": 62661,
        "meta_bstar": 0.00039999748,
        "meta_mean_motion_dot": 9.72e-06,
        "meta_mean_motion_ddot": 0,
        "tle_line1": "1 46444U 99025EYZ 25352.28132122  .00000972  00000+0  40000-3 0  9999",
        "tle_line2": "2 46444  98.5129 354.1289 0084639 134.7606 242.1010 14.27169033626614"
      },
      "geometry": {
        "type": "Point",
        "coordinates": [
          -177.45238944970924,
          1.3244241984119283
        ]
      }
    },
    {
      "type": "Feature",
      "properties": {
        "norad_id": 46449,
        "name": "FENGYUN 1C DEB",
        "group": "fengyun-1c-debris",
        "lat": -69.055871313779,
        "lon": 58.1899090054636,
        "alt_km": 758.1173020157803,
        "timestamp": "2025-12-26T17:24:55.009893+00:00",
        "meta_object_name": "FENGYUN 1C DEB",
        "meta_object_id": "1999-025EZE",
        "meta_epoch": "2025-12-26T07:35:47.407488",
        "meta_mean_motion": 14.19120399,
        "meta_eccentricity": 0.02031741,
        "meta_inclination": 98.6419,
        "meta_ra_of_asc_node": 34.3786,
        "meta_arg_of_pericenter": 231.3087,
        "meta_mean_anomaly": 126.9765,
        "meta_ephemeris_type": 0,
        "meta_classification_type": "U",
        "meta_norad_cat_id": 46449,
        "meta_element_set_no": 999,
        "meta_rev_at_epoch": 57829,
        "meta_bstar": 0.00050059268,
        "meta_mean_motion_dot": 1.24e-05,
        "meta_mean_motion_ddot": 0,
        "tle_line1": "1 46449U 99025EZE 25360.31652092  .00001240  00000+0  50059-3 0  9994",
        "tle_line2": "2 46449  98.6419  34.3786 0203174 231.3087 126.9765 14.19120399578294"
      },
      "geometry": {
        "type": "Point",
        "coordinates": [
          58.1899090054636,
          -69.055871313779
        ]
      }
    },
    {
      "type": "Feature",
      "properties": {
        "norad_id": 46450,
        "name": "FENGYUN 1C DEB",
        "group": "fengyun-1c-debris",
        "lat": 27.39640266612345,
        "lon": -148.38755018629703,
        "alt_km": 747.5686486888699,
        "timestamp": "2025-12-26T17:24:55.009904+00:00",
        "meta_object_name": "FENGYUN 1C DEB",
        "meta_object_id": "1999-025EZF",
        "meta_epoch": "2025-12-22T20:54:28.404576",
        "meta_mean_motion": 14.0364475,
        "meta_eccentricity": 0.018354,
        "meta_inclination": 98.08,
        "meta_ra_of_asc_node": 212.4054,
        "meta_arg_of_pericenter": 32.107,
        "meta_mean_anomaly": 329.1123,
        "meta_ephemeris_type": 0,
        "meta_classification_type": "U",
        "meta_norad_cat_id": 46450,
        "meta_element_set_no": 999,
        "meta_rev_at_epoch": 61261,
        "meta_bstar": 0.0021946,
        "meta_mean_motion_dot": 3.968e-05,
        "meta_mean_motion_ddot": 0,
        "tle_line1": "1 46450U 99025EZF 25356.87116209  .00003968  00000+0  21946-2 0  9998",
        "tle_line2": "2 46450  98.0800 212.4054 0183540  32.1070 329.1123 14.03644750612619"
      },
      "geometry": {
        "type": "Point",
        "coordinates": [
          -148.38755018629703,
          27.39640266612345
        ]
      }
    },
    {
      "type": "Feature",
      "properties": {
        "norad_id": 46451,
        "name": "FENGYUN 1C DEB",
        "group": "fengyun-1c-debris",
        "lat": 55.605806285299494,
        "lon": -149.0601731858356,
        "alt_km": 703.3624994077873,
        "timestamp": "2025-12-26T17:24:55.009914+00:00",
        "meta_object_name": "FENGYUN 1C DEB",
        "meta_object_id": "1999-025EZG",
        "meta_epoch": "2025-12-25T00:24:40.589280",
        "meta_mean_motion": 14.2051902,
        "meta_eccentricity": 0.01711251,
        "meta_inclination": 98.1525,
        "meta_ra_of_asc_node": 17.276,
        "meta_arg_of_pericenter": 150.099,
        "meta_mean_anomaly": 241.9836,
        "meta_ephemeris_type": 0,
        "meta_classification_type": "U",
        "meta_norad_cat_id": 46451,
        "meta_element_set_no": 999,
        "meta_rev_at_epoch": 57181,
        "meta_bstar": 0.0023483511,
        "meta_mean_motion_dot": 5.811e-05,
        "meta_mean_motion_ddot": 0,
        "tle_line1": "1 46451U 99025EZG 25359.01713645  .00005811  00000+0  23484-2 0  9993",
        "tle_line2": "2 46451  98.1525  17.2760 0171125 150.0990 241.9836 14.20519020571815"
      },
      "geometry": {
        "type": "Point",
        "coordinates": [
          -149.0601731858356,
          55.605806285299494
        ]
      }
    },
    {
      "type": "Feature",
      "properties": {
        "norad_id": 46468,
        "name": "FENGYUN 1C DEB",
        "group": "fengyun-1c-debris",
        "lat": -41.19453990265684,
        "lon": -99.19989033068036,
        "alt_km": 786.6849450294803,
        "timestamp": "2025-12-26T17:24:55.009924+00:00",
        "meta_object_name": "FENGYUN 1C DEB",
        "meta_object_id": "1999-025EZK",
        "meta_epoch": "2025-12-22T17:02:48.613632",
        "meta_mean_motion": 14.2480408,
        "meta_eccentricity": 0.00465889,
        "meta_inclination": 98.8843,
        "meta_ra_of_asc_node": 84.6069,
        "meta_arg_of_pericenter": 202.7167,
        "meta_mean_anomaly": 314.1415,
        "meta_ephemeris_type": 0,
        "meta_classification_type": "U",
        "meta_norad_cat_id": 46468,
        "meta_element_set_no": 999,
        "meta_rev_at_epoch": 73958,
        "meta_bstar": 0.0018930281,
        "meta_mean_motion_dot": 4.421e-05,
        "meta_mean_motion_ddot": 0,
        "tle_line1": "1 46468U 99025EZK 25356.71028488  .00004421  00000+0  18930-2 0  9995",
        "tle_line2": "2 46468  98.8843  84.6069 0046588 202.7167 314.1415 14.24804080739581"
      },
      "geometry": {
        "type": "Point",
        "coordinates": [
          -99.19989033068036,
          -41.19453990265684
        ]
      }
    }
  ]
}